start=new Date('2022-06-28T00:00:00.000Z').valueOf();
sats=[{"MEAN_MOTION_DOT":"-0.00000407","PERIAPSIS":"546.161","MEAN_ELEMENT_THEORY":"SGP4","RCS_SIZE":"LARGE","OBJECT_NAME":"STARLINK-2653","APOAPSIS":"548.250","BSTAR":"-0.00000839810000","REV_AT_EPOCH":"6025","TLE_LINE2":"2 48665  53.0535  55.5450 0001508  68.3602 291.7548 15.06402732 60254","EPOCH":"2022-06-27T21:37:07.441248","CENTER_NAME":"EARTH","TIME_SYSTEM":"UTC","MEAN_MOTION_DDOT":"0.0000000000000","CLASSIFICATION_TYPE":"U","ECCENTRICITY":"0.00015080","SITE":"AFETR","EPHEMERIS_TYPE":"0","COUNTRY_CODE":"US","MEAN_MOTION":"15.06402732","GP_ID":"206990997","INCLINATION":"53.0535","PERIOD":"95.592","MEAN_ANOMALY":"291.7548","SEMIMAJOR_AXIS":"6925.340","ELEMENT_SET_NO":"999","RA_OF_ASC_NODE":"55.5450","TLE_LINE1":"1 48665U 21044AD  22178.90078057 -.00000407  00000-0 -83981-5 0  9993","DECAY_DATE":null,"REF_FRAME":"TEME","NORAD_CAT_ID":"48665","LAUNCH_DATE":"2021-05-26","OBJECT_ID":"2021-044AD","FILE":"3504144","OBJECT_TYPE":"PAYLOAD","ARG_OF_PERICENTER":"68.3602"},{"FILE":"3504144","ARG_OF_PERICENTER":"74.2528","OBJECT_TYPE":"PAYLOAD","REF_FRAME":"TEME","DECAY_DATE":null,"NORAD_CAT_ID":"48666","SEMIMAJOR_AXIS":"6925.359","ELEMENT_SET_NO":"999","TLE_LINE1":"1 48666U 21044AE  22178.91284405 -.00002505  00000-0 -14935-3 0  9993","RA_OF_ASC_NODE":"55.9691","LAUNCH_DATE":"2021-05-26","OBJECT_ID":"2021-044AE","EPHEMERIS_TYPE":"0","SITE":"AFETR","MEAN_MOTION":"15.06396469","COUNTRY_CODE":"US","MEAN_MOTION_DDOT":"0.0000000000000","CLASSIFICATION_TYPE":"U","ECCENTRICITY":"0.00019620","MEAN_ANOMALY":"285.8677","PERIOD":"95.592","GP_ID":"206991247","INCLINATION":"53.0571","OBJECT_NAME":"STARLINK-2666","BSTAR":"-0.00014935000000","APOAPSIS":"548.583","PERIAPSIS":"545.866","MEAN_MOTION_DOT":"-0.00002505","RCS_SIZE":"LARGE","MEAN_ELEMENT_THEORY":"SGP4","EPOCH":"2022-06-27T21:54:29.725920","CENTER_NAME":"EARTH","TIME_SYSTEM":"UTC","TLE_LINE2":"2 48666  53.0571  55.9691 0001962  74.2528 285.8677 15.06396469 60248","REV_AT_EPOCH":"6024"},{"TIME_SYSTEM":"UTC","CENTER_NAME":"EARTH","EPOCH":"2022-06-27T21:11:56.616288","REV_AT_EPOCH":"6025","TLE_LINE2":"2 48667  53.0560  55.6345 0001611  63.6897 296.4257 15.06397669 60258","APOAPSIS":"548.336","BSTAR":"0.00000953470000","OBJECT_NAME":"STARLINK-2735","MEAN_ELEMENT_THEORY":"SGP4","RCS_SIZE":"LARGE","MEAN_MOTION_DOT":"-0.00000140","PERIAPSIS":"546.105","MEAN_ANOMALY":"296.4257","PERIOD":"95.592","INCLINATION":"53.0560","GP_ID":"206991999","COUNTRY_CODE":"US","MEAN_MOTION":"15.06397669","SITE":"AFETR","EPHEMERIS_TYPE":"0","ECCENTRICITY":"0.00016110","CLASSIFICATION_TYPE":"U","MEAN_MOTION_DDOT":"0.0000000000000","OBJECT_ID":"2021-044AF","LAUNCH_DATE":"2021-05-26","NORAD_CAT_ID":"48667","DECAY_DATE":null,"REF_FRAME":"TEME","TLE_LINE1":"1 48667U 21044AF  22178.88329417 -.00000140  00000-0  95347-5 0  9993","RA_OF_ASC_NODE":"55.6345","SEMIMAJOR_AXIS":"6925.356","ELEMENT_SET_NO":"999","OBJECT_TYPE":"PAYLOAD","ARG_OF_PERICENTER":"63.6897","FILE":"3504144"},{"ELEMENT_SET_NO":"999","SEMIMAJOR_AXIS":"6925.348","TLE_LINE1":"1 48668U 21044AG  22178.87960556 -.00000588  00000-0 -20587-4 0  9998","RA_OF_ASC_NODE":"55.6435","DECAY_DATE":null,"REF_FRAME":"TEME","NORAD_CAT_ID":"48668","LAUNCH_DATE":"2021-05-26","OBJECT_ID":"2021-044AG","FILE":"3504144","ARG_OF_PERICENTER":"89.5562","OBJECT_TYPE":"PAYLOAD","PERIAPSIS":"546.100","MEAN_MOTION_DOT":"-0.00000588","RCS_SIZE":"LARGE","MEAN_ELEMENT_THEORY":"SGP4","OBJECT_NAME":"STARLINK-2738","BSTAR":"-0.00002058700000","APOAPSIS":"548.326","TLE_LINE2":"2 48668  53.0561  55.6435 0001607  89.5562 270.5611 15.06400275 60256","REV_AT_EPOCH":"6025","EPOCH":"2022-06-27T21:06:37.920384","TIME_SYSTEM":"UTC","CENTER_NAME":"EARTH","MEAN_MOTION_DDOT":"0.0000000000000","ECCENTRICITY":"0.00016070","CLASSIFICATION_TYPE":"U","EPHEMERIS_TYPE":"0","SITE":"AFETR","MEAN_MOTION":"15.06400275","COUNTRY_CODE":"US","INCLINATION":"53.0561","GP_ID":"206992245","PERIOD":"95.592","MEAN_ANOMALY":"270.5611"},{"LAUNCH_DATE":"2021-05-26","OBJECT_ID":"2021-044AH","REF_FRAME":"TEME","DECAY_DATE":null,"NORAD_CAT_ID":"48669","SEMIMAJOR_AXIS":"6925.377","ELEMENT_SET_NO":"999","RA_OF_ASC_NODE":"55.6444","TLE_LINE1":"1 48669U 21044AH  22178.87593162 -.00001441  00000-0 -77870-4 0  9990","ARG_OF_PERICENTER":"81.1133","OBJECT_TYPE":"PAYLOAD","FILE":"3504144","EPOCH":"2022-06-27T21:01:20.491968","TIME_SYSTEM":"UTC","CENTER_NAME":"EARTH","TLE_LINE2":"2 48669  53.0563  55.6444 0001655  81.1133 279.0043 15.06390682 60246","REV_AT_EPOCH":"6024","OBJECT_NAME":"STARLINK-2707","BSTAR":"-0.00007787000000","APOAPSIS":"548.388","PERIAPSIS":"546.096","MEAN_MOTION_DOT":"-0.00001441","RCS_SIZE":"LARGE","MEAN_ELEMENT_THEORY":"SGP4","PERIOD":"95.593","MEAN_ANOMALY":"279.0043","GP_ID":"206990499","INCLINATION":"53.0563","EPHEMERIS_TYPE":"0","SITE":"AFETR","MEAN_MOTION":"15.06390682","COUNTRY_CODE":"US","MEAN_MOTION_DDOT":"0.0000000000000","CLASSIFICATION_TYPE":"U","ECCENTRICITY":"0.00016550"},{"MEAN_ANOMALY":"282.7148","PERIOD":"95.592","INCLINATION":"53.0554","GP_ID":"206990749","EPHEMERIS_TYPE":"0","SITE":"AFETR","MEAN_MOTION":"15.06402654","COUNTRY_CODE":"US","MEAN_MOTION_DDOT":"0.0000000000000","ECCENTRICITY":"0.00015350","CLASSIFICATION_TYPE":"U","EPOCH":"2022-06-27T20:56:00.964896","TIME_SYSTEM":"UTC","CENTER_NAME":"EARTH","TLE_LINE2":"2 48670  53.0554  55.6610 0001535  77.4012 282.7148 15.06402654 60244","REV_AT_EPOCH":"6024","OBJECT_NAME":"STARLINK-2763","BSTAR":"-0.00001349200000","APOAPSIS":"548.268","PERIAPSIS":"546.142","MEAN_MOTION_DOT":"-0.00000482","RCS_SIZE":"LARGE","MEAN_ELEMENT_THEORY":"SGP4","ARG_OF_PERICENTER":"77.4012","OBJECT_TYPE":"PAYLOAD","FILE":"3504144","LAUNCH_DATE":"2021-05-26","OBJECT_ID":"2021-044AJ","DECAY_DATE":null,"REF_FRAME":"TEME","NORAD_CAT_ID":"48670","SEMIMAJOR_AXIS":"6925.340","ELEMENT_SET_NO":"999","TLE_LINE1":"1 48670U 21044AJ  22178.87223339 -.00000482  00000-0 -13492-4 0  9992","RA_OF_ASC_NODE":"55.6610"},{"FILE":"3504144","OBJECT_TYPE":"PAYLOAD","ARG_OF_PERICENTER":"71.4461","SEMIMAJOR_AXIS":"6925.354","ELEMENT_SET_NO":"999","TLE_LINE1":"1 48671U 21044AK  22178.86855085  .00000509  00000-0  53095-4 0  9992","RA_OF_ASC_NODE":"55.6967","REF_FRAME":"TEME","DECAY_DATE":null,"NORAD_CAT_ID":"48671","LAUNCH_DATE":"2021-05-26","OBJECT_ID":"2021-044AK","MEAN_MOTION_DDOT":"0.0000000000000","CLASSIFICATION_TYPE":"U","ECCENTRICITY":"0.00017890","SITE":"AFETR","EPHEMERIS_TYPE":"0","COUNTRY_CODE":"US","MEAN_MOTION":"15.06398089","GP_ID":"206991500","INCLINATION":"53.0553","MEAN_ANOMALY":"288.6722","PERIOD":"95.592","MEAN_MOTION_DOT":"0.00000509","PERIAPSIS":"545.980","MEAN_ELEMENT_THEORY":"SGP4","RCS_SIZE":"LARGE","OBJECT_NAME":"STARLINK-2745","APOAPSIS":"548.458","BSTAR":"0.00005309500000","REV_AT_EPOCH":"6024","TLE_LINE2":"2 48671  53.0553  55.6967 0001789  71.4461 288.6722 15.06398089 60241","EPOCH":"2022-06-27T20:50:42.793440","CENTER_NAME":"EARTH","TIME_SYSTEM":"UTC"},{"MEAN_MOTION_DDOT":"0.0000000000000","ECCENTRICITY":"0.00016230","CLASSIFICATION_TYPE":"U","EPHEMERIS_TYPE":"0","SITE":"AFETR","MEAN_MOTION":"15.06394669","COUNTRY_CODE":"US","GP_ID":"206991746","INCLINATION":"53.0559","PERIOD":"95.592","MEAN_ANOMALY":"282.4202","PERIAPSIS":"546.106","MEAN_MOTION_DOT":"-0.00000817","RCS_SIZE":"LARGE","MEAN_ELEMENT_THEORY":"SGP4","OBJECT_NAME":"STARLINK-2705","BSTAR":"-0.00003596000000","APOAPSIS":"548.354","TLE_LINE2":"2 48672  53.0559  55.7229 0001623  77.6969 282.4202 15.06394669 60243","REV_AT_EPOCH":"6024","EPOCH":"2022-06-27T20:45:24.926976","CENTER_NAME":"EARTH","TIME_SYSTEM":"UTC","FILE":"3504144","ARG_OF_PERICENTER":"77.6969","OBJECT_TYPE":"PAYLOAD","SEMIMAJOR_AXIS":"6925.365","ELEMENT_SET_NO":"999","TLE_LINE1":"1 48672U 21044AL  22178.86487184 -.00000817  00000-0 -35960-4 0  9999","RA_OF_ASC_NODE":"55.7229","DECAY_DATE":null,"REF_FRAME":"TEME","NORAD_CAT_ID":"48672","LAUNCH_DATE":"2021-05-26","OBJECT_ID":"2021-044AL"},{"CLASSIFICATION_TYPE":"U","ECCENTRICITY":"0.00014980","MEAN_MOTION_DDOT":"0.0000000000000","COUNTRY_CODE":"US","MEAN_MOTION":"15.06387978","SITE":"AFETR","EPHEMERIS_TYPE":"0","INCLINATION":"53.0568","GP_ID":"206990998","MEAN_ANOMALY":"294.9043","PERIOD":"95.593","MEAN_ELEMENT_THEORY":"SGP4","RCS_SIZE":"LARGE","MEAN_MOTION_DOT":"-0.00002966","PERIAPSIS":"546.213","APOAPSIS":"548.288","BSTAR":"-0.00018039000000","OBJECT_NAME":"STARLINK-2711","REV_AT_EPOCH":"6024","TLE_LINE2":"2 48673  53.0568  55.7298 0001498  65.2102 294.9043 15.06387978 60248","TIME_SYSTEM":"UTC","CENTER_NAME":"EARTH","EPOCH":"2022-06-27T20:40:06.285504","FILE":"3504144","OBJECT_TYPE":"PAYLOAD","ARG_OF_PERICENTER":"65.2102","TLE_LINE1":"1 48673U 21044AM  22178.86118386 -.00002966  00000-0 -18039-3 0  9999","RA_OF_ASC_NODE":"55.7298","SEMIMAJOR_AXIS":"6925.385","ELEMENT_SET_NO":"999","NORAD_CAT_ID":"48673","DECAY_DATE":null,"REF_FRAME":"TEME","OBJECT_ID":"2021-044AM","LAUNCH_DATE":"2021-05-26"},{"REF_FRAME":"TEME","DECAY_DATE":null,"NORAD_CAT_ID":"48674","SEMIMAJOR_AXIS":"6925.368","ELEMENT_SET_NO":"999","TLE_LINE1":"1 48674U 21044AN  22178.92290058 -.00000496  00000-0 -14406-4 0  9995","RA_OF_ASC_NODE":"55.4442","LAUNCH_DATE":"2021-05-26","OBJECT_ID":"2021-044AN","FILE":"3504144","ARG_OF_PERICENTER":"73.3607","OBJECT_TYPE":"PAYLOAD","OBJECT_NAME":"STARLINK-2712","BSTAR":"-0.00001440600000","APOAPSIS":"548.253","PERIAPSIS":"546.213","MEAN_MOTION_DOT":"-0.00000496","RCS_SIZE":"LARGE","MEAN_ELEMENT_THEORY":"SGP4","EPOCH":"2022-06-27T22:08:58.610112","TIME_SYSTEM":"UTC","CENTER_NAME":"EARTH","TLE_LINE2":"2 48674  53.0573  55.4442 0001473  73.3607 286.7544 15.06393698 60258","REV_AT_EPOCH":"6025","EPHEMERIS_TYPE":"0","SITE":"AFETR","MEAN_MOTION":"15.06393698","COUNTRY_CODE":"US","MEAN_MOTION_DDOT":"0.0000000000000","CLASSIFICATION_TYPE":"U","ECCENTRICITY":"0.00014730","MEAN_ANOMALY":"286.7544","PERIOD":"95.593","GP_ID":"206991248","INCLINATION":"53.0573"}];
